[{"OBJECT_NAME":"STARLINK-1843","OBJECT_ID":"2020-088M","EPOCH":"2026-03-10T00:00:02.999808","MEAN_MOTION":15.86776204,"ECCENTRICITY":0.00043097,"INCLINATION":53.0427,"RA_OF_ASC_NODE":241.618,"ARG_OF_PERICENTER":322.3454,"MEAN_ANOMALY":52.8861,"EPHEMERIS_TYPE":0,"CLASSIFICATION_TYPE":"U","NORAD_CAT_ID":47133,"ELEMENT_SET_NO":999,"REV_AT_EPOCH":598,"BSTAR":0.00089943475,"MEAN_MOTION_DOT":0.00240916,"MEAN_MOTION_DDOT":0},{"OBJECT_NAME":"STARLINK-32272","OBJECT_ID":"2024-152R","EPOCH":"2026-03-09T22:00:01.999584","MEAN_MOTION":15.83714016,"ECCENTRICITY":0.00160774,"INCLINATION":53.1399,"RA_OF_ASC_NODE":256.2284,"ARG_OF_PERICENTER":264.0544,"MEAN_ANOMALY":352.9882,"EPHEMERIS_TYPE":0,"CLASSIFICATION_TYPE":"U","NORAD_CAT_ID":60735,"ELEMENT_SET_NO":999,"REV_AT_EPOCH":592,"BSTAR":0.0014299197,"MEAN_MOTION_DOT":0.00337099,"MEAN_MOTION_DDOT":0}]
